{"fetched_at":"2026-07-12T07:15:21.624Z","source":"https://celestrak.org/NORAD/elements/gp.php?GROUP=planet&FORMAT=JSON","constellation":"superdove","records":[{"OBJECT_NAME":"FLOCK 4H-15","OBJECT_ID":"2025-276BE","EPOCH":"2026-07-11T22:30:20.158848","CLASSIFICATION_TYPE":"U","MEAN_MOTION":15.19857363,"ECCENTRICITY":0.00027396,"INCLINATION":97.4219,"RA_OF_ASC_NODE":266.019,"ARG_OF_PERICENTER":293.0877,"MEAN_ANOMALY":67.0069,"EPHEMERIS_TYPE":0,"NORAD_CAT_ID":66718,"ELEMENT_SET_NO":999,"REV_AT_EPOCH":3417,"BSTAR":0.00019690826,"MEAN_MOTION_DOT":0.00004155,"MEAN_MOTION_DDOT":0},{"OBJECT_NAME":"FLOCK 4H-16","OBJECT_ID":"2025-276BF","EPOCH":"2026-07-11T18:42:16.979616","CLASSIFICATION_TYPE":"U","MEAN_MOTION":15.20123327,"ECCENTRICITY":0.00027073,"INCLINATION":97.4232,"RA_OF_ASC_NODE":265.9715,"ARG_OF_PERICENTER":276.6982,"MEAN_ANOMALY":83.3945,"EPHEMERIS_TYPE":0,"NORAD_CAT_ID":66719,"ELEMENT_SET_NO":999,"REV_AT_EPOCH":3415,"BSTAR":0.00018112172,"MEAN_MOTION_DOT":0.00003847,"MEAN_MOTION_DDOT":0},{"OBJECT_NAME":"FLOCK 4H-18","OBJECT_ID":"2025-276BH","EPOCH":"2026-07-11T18:50:58.590240","CLASSIFICATION_TYPE":"U","MEAN_MOTION":15.20064343,"ECCENTRICITY":0.00023578,"INCLINATION":97.4174,"RA_OF_ASC_NODE":265.7937,"ARG_OF_PERICENTER":313.07,"MEAN_ANOMALY":47.0338,"EPHEMERIS_TYPE":0,"NORAD_CAT_ID":66721,"ELEMENT_SET_NO":999,"REV_AT_EPOCH":3415,"BSTAR":0.00017817912,"MEAN_MOTION_DOT":0.00003776,"MEAN_MOTION_DDOT":0},{"OBJECT_NAME":"FLOCK 4H-19","OBJECT_ID":"2025-276BJ","EPOCH":"2026-07-11T18:53:46.655520","CLASSIFICATION_TYPE":"U","MEAN_MOTION":15.21261955,"ECCENTRICITY":0.00021053,"INCLINATION":97.4176,"RA_OF_ASC_NODE":266.2521,"ARG_OF_PERICENTER":156.4763,"MEAN_ANOMALY":203.657,"EPHEMERIS_TYPE":0,"NORAD_CAT_ID":66722,"ELEMENT_SET_NO":999,"REV_AT_EPOCH":3347,"BSTAR":0.00014773721,"MEAN_MOTION_DOT":0.00003232,"MEAN_MOTION_DDOT":0},{"OBJECT_NAME":"FLOCK 4H-20","OBJECT_ID":"2025-276BK","EPOCH":"2026-07-11T18:57:22.762656","CLASSIFICATION_TYPE":"U","MEAN_MOTION":15.21418768,"ECCENTRICITY":0.00025065,"INCLINATION":97.4214,"RA_OF_ASC_NODE":266.3577,"ARG_OF_PERICENTER":180.5446,"MEAN_ANOMALY":179.5788,"EPHEMERIS_TYPE":0,"NORAD_CAT_ID":66723,"ELEMENT_SET_NO":999,"REV_AT_EPOCH":3343,"BSTAR":0.00016990313,"MEAN_MOTION_DOT":0.00003744,"MEAN_MOTION_DDOT":0},{"OBJECT_NAME":"FLOCK 4H-21","OBJECT_ID":"2025-276BL","EPOCH":"2026-07-11T18:06:27.956736","CLASSIFICATION_TYPE":"U","MEAN_MOTION":15.21006645,"ECCENTRICITY":0.00023585,"INCLINATION":97.4179,"RA_OF_ASC_NODE":266.1509,"ARG_OF_PERICENTER":178.4696,"MEAN_ANOMALY":181.6547,"EPHEMERIS_TYPE":0,"NORAD_CAT_ID":66724,"ELEMENT_SET_NO":999,"REV_AT_EPOCH":3342,"BSTAR":0.00019590196,"MEAN_MOTION_DOT":0.00004276,"MEAN_MOTION_DDOT":0},{"OBJECT_NAME":"FLOCK 4H-22","OBJECT_ID":"2025-276BM","EPOCH":"2026-07-11T17:34:12.447264","CLASSIFICATION_TYPE":"U","MEAN_MOTION":15.20492582,"ECCENTRICITY":0.00012118,"INCLINATION":97.4168,"RA_OF_ASC_NODE":265.8427,"ARG_OF_PERICENTER":324.5369,"MEAN_ANOMALY":35.5785,"EPHEMERIS_TYPE":0,"NORAD_CAT_ID":66725,"ELEMENT_SET_NO":999,"REV_AT_EPOCH":3415,"BSTAR":0.000198386,"MEAN_MOTION_DOT":0.00004266,"MEAN_MOTION_DDOT":0},{"OBJECT_NAME":"FLOCK 4H-23","OBJECT_ID":"2025-276BN","EPOCH":"2026-07-11T15:40:21.798048","CLASSIFICATION_TYPE":"U","MEAN_MOTION":15.20042459,"ECCENTRICITY":0.00028095,"INCLINATION":97.424,"RA_OF_ASC_NODE":265.8484,"ARG_OF_PERICENTER":264.7805,"MEAN_ANOMALY":95.311,"EPHEMERIS_TYPE":0,"NORAD_CAT_ID":66726,"ELEMENT_SET_NO":999,"REV_AT_EPOCH":3413,"BSTAR":0.00017210358,"MEAN_MOTION_DOT":0.00003643,"MEAN_MOTION_DDOT":0},{"OBJECT_NAME":"FLOCK 4H-24","OBJECT_ID":"2025-276BP","EPOCH":"2026-07-11T18:28:23.989440","CLASSIFICATION_TYPE":"U","MEAN_MOTION":15.20151756,"ECCENTRICITY":0.00023597,"INCLINATION":97.4235,"RA_OF_ASC_NODE":265.9919,"ARG_OF_PERICENTER":287.452,"MEAN_ANOMALY":72.6457,"EPHEMERIS_TYPE":0,"NORAD_CAT_ID":66727,"ELEMENT_SET_NO":999,"REV_AT_EPOCH":3415,"BSTAR":0.00019404745,"MEAN_MOTION_DOT":0.00004129,"MEAN_MOTION_DDOT":0},{"OBJECT_NAME":"FLOCK 4H-25","OBJECT_ID":"2025-276BQ","EPOCH":"2026-07-11T18:32:47.702112","CLASSIFICATION_TYPE":"U","MEAN_MOTION":15.20917731,"ECCENTRICITY":0.00017094,"INCLINATION":97.4191,"RA_OF_ASC_NODE":266.1603,"ARG_OF_PERICENTER":129.5036,"MEAN_ANOMALY":230.6351,"EPHEMERIS_TYPE":0,"NORAD_CAT_ID":66728,"ELEMENT_SET_NO":999,"REV_AT_EPOCH":3345,"BSTAR":0.00017056891,"MEAN_MOTION_DOT":0.00003704,"MEAN_MOTION_DDOT":0},{"OBJECT_NAME":"FLOCK 4H-26","OBJECT_ID":"2025-276BR","EPOCH":"2026-07-11T17:40:50.473920","CLASSIFICATION_TYPE":"U","MEAN_MOTION":15.19874955,"ECCENTRICITY":0.00032071,"INCLINATION":97.4189,"RA_OF_ASC_NODE":265.7449,"ARG_OF_PERICENTER":283.8907,"MEAN_ANOMALY":76.1971,"EPHEMERIS_TYPE":0,"NORAD_CAT_ID":66729,"ELEMENT_SET_NO":999,"REV_AT_EPOCH":3414,"BSTAR":0.00019062147,"MEAN_MOTION_DOT":0.00004023,"MEAN_MOTION_DDOT":0},{"OBJECT_NAME":"FLOCK 4H-27","OBJECT_ID":"2025-276BS","EPOCH":"2026-07-11T17:41:33.704160","CLASSIFICATION_TYPE":"U","MEAN_MOTION":15.20742328,"ECCENTRICITY":0.00013811,"INCLINATION":97.4165,"RA_OF_ASC_NODE":265.9805,"ARG_OF_PERICENTER":126.2407,"MEAN_ANOMALY":233.8956,"EPHEMERIS_TYPE":0,"NORAD_CAT_ID":66730,"ELEMENT_SET_NO":999,"REV_AT_EPOCH":3416,"BSTAR":0.00019216064,"MEAN_MOTION_DOT":0.0000416,"MEAN_MOTION_DDOT":0},{"OBJECT_NAME":"FLOCK 4H-29","OBJECT_ID":"2025-276BU","EPOCH":"2026-07-11T17:11:49.373952","CLASSIFICATION_TYPE":"U","MEAN_MOTION":15.2001513,"ECCENTRICITY":0.00017674,"INCLINATION":97.4171,"RA_OF_ASC_NODE":265.7074,"ARG_OF_PERICENTER":308.8907,"MEAN_ANOMALY":51.217,"EPHEMERIS_TYPE":0,"NORAD_CAT_ID":66732,"ELEMENT_SET_NO":999,"REV_AT_EPOCH":3414,"BSTAR":0.00018515623,"MEAN_MOTION_DOT":0.00003921,"MEAN_MOTION_DDOT":0},{"OBJECT_NAME":"FLOCK 4H-30","OBJECT_ID":"2025-276BV","EPOCH":"2026-07-11T18:35:21.283296","CLASSIFICATION_TYPE":"U","MEAN_MOTION":15.2013871,"ECCENTRICITY":0.00026352,"INCLINATION":97.4229,"RA_OF_ASC_NODE":265.9687,"ARG_OF_PERICENTER":285.7448,"MEAN_ANOMALY":74.3497,"EPHEMERIS_TYPE":0,"NORAD_CAT_ID":66733,"ELEMENT_SET_NO":999,"REV_AT_EPOCH":3415,"BSTAR":0.0001860784,"MEAN_MOTION_DOT":0.00003956,"MEAN_MOTION_DDOT":0},{"OBJECT_NAME":"FLOCK 4H-31","OBJECT_ID":"2025-276BW","EPOCH":"2026-07-11T19:04:50.295648","CLASSIFICATION_TYPE":"U","MEAN_MOTION":15.19915853,"ECCENTRICITY":0.00021515,"INCLINATION":97.4167,"RA_OF_ASC_NODE":265.7522,"ARG_OF_PERICENTER":300.72,"MEAN_ANOMALY":59.3823,"EPHEMERIS_TYPE":0,"NORAD_CAT_ID":66734,"ELEMENT_SET_NO":999,"REV_AT_EPOCH":3415,"BSTAR":0.00017788712,"MEAN_MOTION_DOT":0.00003754,"MEAN_MOTION_DDOT":0},{"OBJECT_NAME":"FLOCK 4H-32","OBJECT_ID":"2025-276BX","EPOCH":"2026-07-11T18:47:48.537888","CLASSIFICATION_TYPE":"U","MEAN_MOTION":15.20034665,"ECCENTRICITY":0.00030001,"INCLINATION":97.4222,"RA_OF_ASC_NODE":265.9339,"ARG_OF_PERICENTER":280.7152,"MEAN_ANOMALY":79.3745,"EPHEMERIS_TYPE":0,"NORAD_CAT_ID":66735,"ELEMENT_SET_NO":999,"REV_AT_EPOCH":3415,"BSTAR":0.00017274557,"MEAN_MOTION_DOT":0.00003656,"MEAN_MOTION_DDOT":0}]}
