FLOCK 4H-15             
1 66718U 25276BE  26192.93773332  .00004155  00000+0  19691-3 0  9990
2 66718  97.4219 266.0190 0002739 293.0877  67.0069 15.19857363 34174
FLOCK 4H-16             
1 66719U 25276BF  26192.77936319  .00003847  00000+0  18112-3 0  9993
2 66719  97.4232 265.9715 0002707 276.6982  83.3945 15.20123327 34150
FLOCK 4H-18             
1 66721U 25276BH  26192.78540035  .00003776  00000+0  17818-3 0  9996
2 66721  97.4174 265.7937 0002357 313.0700  47.0338 15.20064343 34152
FLOCK 4H-19             
1 66722U 25276BJ  26192.78734555  .00003232  00000+0  14774-3 0  9994
2 66722  97.4176 266.2521 0002105 156.4763 203.6570 15.21261955 33470
FLOCK 4H-20             
1 66723U 25276BK  26192.78984679  .00003744  00000+0  16990-3 0  9999
2 66723  97.4214 266.3577 0002506 180.5446 179.5788 15.21418768 33431
FLOCK 4H-21             
1 66724U 25276BL  26192.75449024  .00004276  00000+0  19590-3 0  9997
2 66724  97.4179 266.1509 0002358 178.4696 181.6547 15.21006645 33426
FLOCK 4H-22             
1 66725U 25276BM  26192.73208851  .00004266  00000+0  19839-3 0  9992
2 66725  97.4168 265.8427 0001211 324.5369  35.5785 15.20492582 34158
FLOCK 4H-23             
1 66726U 25276BN  26192.65303007  .00003643  00000+0  17210-3 0  9992
2 66726  97.4240 265.8484 0002809 264.7805  95.3110 15.20042459 34135
FLOCK 4H-24             
1 66727U 25276BP  26192.76972210  .00004129  00000+0  19405-3 0  9991
2 66727  97.4235 265.9919 0002359 287.4520  72.6457 15.20151756 34155
FLOCK 4H-25             
1 66728U 25276BQ  26192.77277433  .00003704  00000+0  17057-3 0  9997
2 66728  97.4191 266.1603 0001709 129.5036 230.6351 15.20917731 33450
FLOCK 4H-26             
1 66729U 25276BR  26192.73669530  .00004023  00000+0  19062-3 0  9990
2 66729  97.4189 265.7449 0003207 283.8907  76.1971 15.19874955 34143
FLOCK 4H-27             
1 66730U 25276BS  26192.73719565  .00004160  00000+0  19216-3 0  9999
2 66730  97.4165 265.9805 0001381 126.2407 233.8956 15.20742328 34160
FLOCK 4H-29             
1 66732U 25276BU  26192.71654368  .00003921  00000+0  18516-3 0  9994
2 66732  97.4171 265.7074 0001767 308.8907  51.2170 15.20015130 34148
FLOCK 4H-30             
1 66733U 25276BV  26192.77455189  .00003956  00000+0  18608-3 0  9991
2 66733  97.4229 265.9687 0002635 285.7448  74.3497 15.20138710 34152
FLOCK 4H-31             
1 66734U 25276BW  26192.79502657  .00003754  00000+0  17789-3 0  9992
2 66734  97.4167 265.7522 0002151 300.7200  59.3823 15.19915853 34152
FLOCK 4H-32             
1 66735U 25276BX  26192.78320067  .00003656  00000+0  17275-3 0  9996
2 66735  97.4222 265.9339 0003000 280.7152  79.3745 15.20034665 34150
